[{"OBJECT_NAME":"STARLINK-4385","OBJECT_ID":"2022-084K","EPOCH":"2025-07-30T18:03:58.014720","MEAN_MOTION":15.01258721,"ECCENTRICITY":9.96e-5,"INCLINATION":97.6547,"RA_OF_ASC_NODE":272.7381,"ARG_OF_PERICENTER":147.6832,"MEAN_ANOMALY":212.4454,"EPHEMERIS_TYPE":0,"CLASSIFICATION_TYPE":"U","NORAD_CAT_ID":53198,"ELEMENT_SET_NO":999,"REV_AT_EPOCH":16667,"BSTAR":0.00037609,"MEAN_MOTION_DOT":4.775e-5,"MEAN_MOTION_DDOT":0},{"OBJECT_NAME":"STARLINK-4395","OBJECT_ID":"2022-084L","EPOCH":"2025-07-30T21:13:15.896064","MEAN_MOTION":15.01263823,"ECCENTRICITY":0.0001091,"INCLINATION":97.6551,"RA_OF_ASC_NODE":272.8584,"ARG_OF_PERICENTER":143.9123,"MEAN_ANOMALY":216.2175,"EPHEMERIS_TYPE":0,"CLASSIFICATION_TYPE":"U","NORAD_CAT_ID":53199,"ELEMENT_SET_NO":999,"REV_AT_EPOCH":16603,"BSTAR":8.8797e-5,"MEAN_MOTION_DOT":1.082e-5,"MEAN_MOTION_DDOT":0},{"OBJECT_NAME":"STARLINK-4417","OBJECT_ID":"2022-084M","EPOCH":"2025-07-31T11:32:05.844480","MEAN_MOTION":15.0126684,"ECCENTRICITY":0.0001908,"INCLINATION":97.6543,"RA_OF_ASC_NODE":273.4624,"ARG_OF_PERICENTER":160.2465,"MEAN_ANOMALY":199.8833,"EPHEMERIS_TYPE":0,"CLASSIFICATION_TYPE":"U","NORAD_CAT_ID":53200,"ELEMENT_SET_NO":999,"REV_AT_EPOCH":16650,"BSTAR":2.9099e-5,"MEAN_MOTION_DOT":3.15e-6,"MEAN_MOTION_DDOT":0},{"OBJECT_NAME":"STARLINK-4405","OBJECT_ID":"2022-084N","EPOCH":"2025-07-30T20:54:57.326112","MEAN_MOTION":15.01251053,"ECCENTRICITY":0.000314,"INCLINATION":97.655,"RA_OF_ASC_NODE":272.8651,"ARG_OF_PERICENTER":159.4271,"MEAN_ANOMALY":200.708,"EPHEMERIS_TYPE":0,"CLASSIFICATION_TYPE":"U","NORAD_CAT_ID":53201,"ELEMENT_SET_NO":999,"REV_AT_EPOCH":16603,"BSTAR":-6.2666e-5,"MEAN_MOTION_DOT":-8.64e-6,"MEAN_MOTION_DDOT":0},{"OBJECT_NAME":"STARLINK-4411","OBJECT_ID":"2022-084P","EPOCH":"2025-07-30T17:50:37.842720","MEAN_MOTION":15.01266924,"ECCENTRICITY":0.0003859,"INCLINATION":97.6546,"RA_OF_ASC_NODE":272.7359,"ARG_OF_PERICENTER":156.7068,"MEAN_ANOMALY":203.4332,"EPHEMERIS_TYPE":0,"CLASSIFICATION_TYPE":"U","NORAD_CAT_ID":53202,"ELEMENT_SET_NO":999,"REV_AT_EPOCH":16601,"BSTAR":-0.00015138,"MEAN_MOTION_DOT":-2.004e-5,"MEAN_MOTION_DDOT":0},{"OBJECT_NAME":"STARLINK-4409","OBJECT_ID":"2022-084Q","EPOCH":"2025-07-31T03:21:10.083456","MEAN_MOTION":15.01263291,"ECCENTRICITY":0.0002941,"INCLINATION":97.6551,"RA_OF_ASC_NODE":273.117,"ARG_OF_PERICENTER":167.1095,"MEAN_ANOMALY":193.0205,"EPHEMERIS_TYPE":0,"CLASSIFICATION_TYPE":"U","NORAD_CAT_ID":53203,"ELEMENT_SET_NO":999,"REV_AT_EPOCH":16645,"BSTAR":4.6297e-5,"MEAN_MOTION_DOT":5.36e-6,"MEAN_MOTION_DDOT":0},{"OBJECT_NAME":"STARLINK-4410","OBJECT_ID":"2022-084R","EPOCH":"2025-07-31T11:26:46.194720","MEAN_MOTION":15.01292992,"ECCENTRICITY":0.0003834,"INCLINATION":97.6557,"RA_OF_ASC_NODE":273.454,"ARG_OF_PERICENTER":163.6812,"MEAN_ANOMALY":196.4537,"EPHEMERIS_TYPE":0,"CLASSIFICATION_TYPE":"U","NORAD_CAT_ID":53204,"ELEMENT_SET_NO":999,"REV_AT_EPOCH":16650,"BSTAR":0.0010456,"MEAN_MOTION_DOT":0.0001341,"MEAN_MOTION_DDOT":0},{"OBJECT_NAME":"STARLINK-4397","OBJECT_ID":"2022-084S","EPOCH":"2025-07-30T17:39:58.086144","MEAN_MOTION":15.01259012,"ECCENTRICITY":0.0002603,"INCLINATION":97.6553,"RA_OF_ASC_NODE":272.7197,"ARG_OF_PERICENTER":127.8579,"MEAN_ANOMALY":232.2881,"EPHEMERIS_TYPE":0,"CLASSIFICATION_TYPE":"U","NORAD_CAT_ID":53205,"ELEMENT_SET_NO":999,"REV_AT_EPOCH":16601,"BSTAR":7.5871e-6,"MEAN_MOTION_DOT":3.8e-7,"MEAN_MOTION_DDOT":0},{"OBJECT_NAME":"STARLINK-4408","OBJECT_ID":"2022-084T","EPOCH":"2025-07-30T22:11:54.146400","MEAN_MOTION":15.01260349,"ECCENTRICITY":0.0001364,"INCLINATION":97.6583,"RA_OF_ASC_NODE":272.9505,"ARG_OF_PERICENTER":93.0959,"MEAN_ANOMALY":267.0422,"EPHEMERIS_TYPE":0,"CLASSIFICATION_TYPE":"U","NORAD_CAT_ID":53206,"ELEMENT_SET_NO":999,"REV_AT_EPOCH":16604,"BSTAR":3.7703e-5,"MEAN_MOTION_DOT":4.25e-6,"MEAN_MOTION_DDOT":0},{"OBJECT_NAME":"STARLINK-4413","OBJECT_ID":"2022-084U","EPOCH":"2025-07-31T03:13:10.437312","MEAN_MOTION":15.01253635,"ECCENTRICITY":0.0004087,"INCLINATION":97.6539,"RA_OF_ASC_NODE":273.106,"ARG_OF_PERICENTER":147.4116,"MEAN_ANOMALY":212.7361,"EPHEMERIS_TYPE":0,"CLASSIFICATION_TYPE":"U","NORAD_CAT_ID":53207,"ELEMENT_SET_NO":999,"REV_AT_EPOCH":16645,"BSTAR":-0.00016794,"MEAN_MOTION_DOT":-2.216e-5,"MEAN_MOTION_DDOT":0},{"OBJECT_NAME":"STARLINK-4425","OBJECT_ID":"2022-084V","EPOCH":"2025-07-30T17:47:57.866208","MEAN_MOTION":15.01261394,"ECCENTRICITY":0.0003527,"INCLINATION":97.6549,"RA_OF_ASC_NODE":272.7248,"ARG_OF_PERICENTER":158.0045,"MEAN_ANOMALY":202.1332,"EPHEMERIS_TYPE":0,"CLASSIFICATION_TYPE":"U","NORAD_CAT_ID":53208,"ELEMENT_SET_NO":999,"REV_AT_EPOCH":16601,"BSTAR":2.3034e-5,"MEAN_MOTION_DOT":2.37e-6,"MEAN_MOTION_DDOT":0},{"OBJECT_NAME":"STARLINK-4423","OBJECT_ID":"2022-084W","EPOCH":"2025-07-30T22:22:56.092224","MEAN_MOTION":15.01275086,"ECCENTRICITY":0.0002662,"INCLINATION":97.6553,"RA_OF_ASC_NODE":272.9139,"ARG_OF_PERICENTER":109.6036,"MEAN_ANOMALY":250.5476,"EPHEMERIS_TYPE":0,"CLASSIFICATION_TYPE":"U","NORAD_CAT_ID":53209,"ELEMENT_SET_NO":999,"REV_AT_EPOCH":16604,"BSTAR":0.00017248,"MEAN_MOTION_DOT":2.158e-5,"MEAN_MOTION_DDOT":0},{"OBJECT_NAME":"STARLINK-4427","OBJECT_ID":"2022-084X","EPOCH":"2025-07-30T20:54:35.308800","MEAN_MOTION":15.01261728,"ECCENTRICITY":0.000381,"INCLINATION":97.6551,"RA_OF_ASC_NODE":272.8526,"ARG_OF_PERICENTER":157.9989,"MEAN_ANOMALY":202.1399,"EPHEMERIS_TYPE":0,"CLASSIFICATION_TYPE":"U","NORAD_CAT_ID":53210,"ELEMENT_SET_NO":999,"REV_AT_EPOCH":16657,"BSTAR":4.7431e-5,"MEAN_MOTION_DOT":5.5e-6,"MEAN_MOTION_DDOT":0},{"OBJECT_NAME":"STARLINK-4416","OBJECT_ID":"2022-084Z","EPOCH":"2025-07-31T03:10:30.744192","MEAN_MOTION":15.01260619,"ECCENTRICITY":0.0002688,"INCLINATION":97.6558,"RA_OF_ASC_NODE":273.1108,"ARG_OF_PERICENTER":115.1599,"MEAN_ANOMALY":244.9904,"EPHEMERIS_TYPE":0,"CLASSIFICATION_TYPE":"U","NORAD_CAT_ID":53212,"ELEMENT_SET_NO":999,"REV_AT_EPOCH":16645,"BSTAR":4.6885e-5,"MEAN_MOTION_DOT":5.43e-6,"MEAN_MOTION_DDOT":0},{"OBJECT_NAME":"STARLINK-4414","OBJECT_ID":"2022-084AA","EPOCH":"2025-07-30T22:09:14.563872","MEAN_MOTION":15.01259033,"ECCENTRICITY":0.0001442,"INCLINATION":97.6576,"RA_OF_ASC_NODE":272.9166,"ARG_OF_PERICENTER":95.6361,"MEAN_ANOMALY":264.5027,"EPHEMERIS_TYPE":0,"CLASSIFICATION_TYPE":"U","NORAD_CAT_ID":53213,"ELEMENT_SET_NO":999,"REV_AT_EPOCH":16656,"BSTAR":1.7711e-5,"MEAN_MOTION_DOT":1.68e-6,"MEAN_MOTION_DDOT":0},{"OBJECT_NAME":"STARLINK-4353","OBJECT_ID":"2022-084AB","EPOCH":"2025-07-30T22:19:54.543360","MEAN_MOTION":15.01261783,"ECCENTRICITY":0.000266,"INCLINATION":97.6556,"RA_OF_ASC_NODE":272.9131,"ARG_OF_PERICENTER":103.8913,"MEAN_ANOMALY":256.2608,"EPHEMERIS_TYPE":0,"CLASSIFICATION_TYPE":"U","NORAD_CAT_ID":53214,"ELEMENT_SET_NO":999,"REV_AT_EPOCH":16604,"BSTAR":3.9549e-5,"MEAN_MOTION_DOT":4.49e-6,"MEAN_MOTION_DDOT":0},{"OBJECT_NAME":"STARLINK-4335","OBJECT_ID":"2022-084AC","EPOCH":"2025-07-30T17:18:38.433888","MEAN_MOTION":15.01258649,"ECCENTRICITY":0.0001662,"INCLINATION":97.6573,"RA_OF_ASC_NODE":272.7193,"ARG_OF_PERICENTER":90.0007,"MEAN_ANOMALY":270.1407,"EPHEMERIS_TYPE":0,"CLASSIFICATION_TYPE":"U","NORAD_CAT_ID":53215,"ELEMENT_SET_NO":999,"REV_AT_EPOCH":16653,"BSTAR":3.6166e-5,"MEAN_MOTION_DOT":4.06e-6,"MEAN_MOTION_DDOT":0}]
