STARLINK-4385           
1 53198U 22084K   25211.75275480  .00004775  00000+0  37609-3 0  9991
2 53198  97.6547 272.7381 0000996 147.6832 212.4454 15.01258721166671
STARLINK-4395           
1 53199U 22084L   25211.88421176  .00001082  00000+0  88797-4 0  9994
2 53199  97.6551 272.8584 0001091 143.9123 216.2175 15.01263823166033
STARLINK-4417           
1 53200U 22084M   25212.48062320  .00000315  00000+0  29099-4 0  9994
2 53200  97.6543 273.4624 0001908 160.2465 199.8833 15.01266840166508
STARLINK-4405           
1 53201U 22084N   25211.87149683 -.00000864  00000+0 -62666-4 0  9993
2 53201  97.6550 272.8651 0003140 159.4271 200.7080 15.01251053166039
STARLINK-4411           
1 53202U 22084P   25211.74349355 -.00002004  00000+0 -15138-3 0  9997
2 53202  97.6546 272.7359 0003859 156.7068 203.4332 15.01266924166011
STARLINK-4409           
1 53203U 22084Q   25212.13970004  .00000536  00000+0  46297-4 0  9990
2 53203  97.6551 273.1170 0002941 167.1095 193.0205 15.01263291166456
STARLINK-4410           
1 53204U 22084R   25212.47692355  .00013410  00000+0  10456-2 0  9999
2 53204  97.6557 273.4540 0003834 163.6812 196.4537 15.01292992166508
STARLINK-4397           
1 53205U 22084S   25211.73608896  .00000038  00000+0  75871-5 0  9992
2 53205  97.6553 272.7197 0002603 127.8579 232.2881 15.01259012166013
STARLINK-4408           
1 53206U 22084T   25211.92493225  .00000425  00000+0  37703-4 0  9993
2 53206  97.6583 272.9505 0001364  93.0959 267.0422 15.01260349166046
STARLINK-4413           
1 53207U 22084U   25212.13414858 -.00002216  00000+0 -16794-3 0  9991
2 53207  97.6539 273.1060 0004087 147.4116 212.7361 15.01253635166455
STARLINK-4425           
1 53208U 22084V   25211.74164197  .00000237  00000+0  23034-4 0  9991
2 53208  97.6549 272.7248 0003527 158.0045 202.1332 15.01261394166011
STARLINK-4423           
1 53209U 22084W   25211.93259366  .00002158  00000+0  17248-3 0  9999
2 53209  97.6553 272.9139 0002662 109.6036 250.5476 15.01275086166041
STARLINK-4427           
1 53210U 22084X   25211.87124200  .00000550  00000+0  47431-4 0  9994
2 53210  97.6551 272.8526 0003810 157.9989 202.1399 15.01261728166572
STARLINK-4416           
1 53212U 22084Z   25212.13230028  .00000543  00000+0  46885-4 0  9996
2 53212  97.6558 273.1108 0002688 115.1599 244.9904 15.01260619166457
STARLINK-4414           
1 53213U 22084AA  25211.92308523  .00000168  00000+0  17711-4 0  9998
2 53213  97.6576 272.9166 0001442  95.6361 264.5027 15.01259033166569
STARLINK-4353           
1 53214U 22084AB  25211.93049240  .00000449  00000+0  39549-4 0  9993
2 53214  97.6556 272.9131 0002660 103.8913 256.2608 15.01261783166049
STARLINK-4335           
1 53215U 22084AC  25211.72127817  .00000406  00000+0  36166-4 0  9993
2 53215  97.6573 272.7193 0001662  90.0007 270.1407 15.01258649166530
